FLOCK 4H-15             
1 66718U 25276BE  26193.26692132  .00003830  00000+0  18171-3 0  9996
2 66718  97.4218 266.3426 0002717 291.7570  68.3375 15.19859701 34227
FLOCK 4H-16             
1 66719U 25276BF  26193.43762389  .00003809  00000+0  17933-3 0  9999
2 66719  97.4234 266.6191 0002703 272.6174  87.4752 15.20128334 34258
FLOCK 4H-18             
1 66721U 25276BH  26193.50951494  .00003744  00000+0  17663-3 0  9995
2 66721  97.4176 266.5057 0002306 308.6228  51.4800 15.20069940 34268
FLOCK 4H-19             
1 66722U 25276BJ  26193.51089116  .00003274  00000+0  14962-3 0  9997
2 66722  97.4177 266.9648 0002165 154.1760 205.9584 15.21266946 33583
FLOCK 4H-20             
1 66723U 25276BK  26193.51331763  .00003698  00000+0  16783-3 0  9999
2 66723  97.4214 267.0711 0002523 178.7749 181.3493 15.21424357 33540
FLOCK 4H-21             
1 66724U 25276BL  26193.14921813  .00004324  00000+0  19805-3 0  9995
2 66724  97.4177 266.5397 0002386 176.7511 183.3740 15.21009905 33483
FLOCK 4H-22             
1 66725U 25276BM  26192.73208851  .00004266  00000+0  19839-3 0  9992
2 66725  97.4168 265.8427 0001211 324.5369  35.5785 15.20492582 34158
FLOCK 4H-23             
1 66726U 25276BN  26193.44298478  .00003684  00000+0  17399-3 0  9998
2 66726  97.4240 266.6258 0002836 260.1995  99.8920 15.20048324 34251
FLOCK 4H-24             
1 66727U 25276BP  26192.76972210  .00004129  00000+0  19405-3 0  9991
2 66727  97.4235 265.9919 0002359 287.4520  72.6457 15.20151756 34155
FLOCK 4H-25             
1 66728U 25276BQ  26192.77277433  .00003704  00000+0  17057-3 0  9997
2 66728  97.4191 266.1603 0001709 129.5036 230.6351 15.20917731 33450
FLOCK 4H-26             
1 66729U 25276BR  26193.13171626  .00004001  00000+0  18957-3 0  9997
2 66729  97.4189 266.1334 0003223 281.9852  78.1021 15.19878396 34205
FLOCK 4H-27             
1 66730U 25276BS  26193.26358985  .00003928  00000+0  18159-3 0  9999
2 66730  97.4166 266.4986 0001372 126.5367 233.5995 15.20746728 34242
FLOCK 4H-29             
1 66732U 25276BU  26193.44068178  .00003899  00000+0  18407-3 0  9996
2 66732  97.4170 266.4197 0001706 304.7175  55.3899 15.20020897 34257
FLOCK 4H-30             
1 66733U 25276BV  26193.10367930  .00004081  00000+0  19185-3 0  9996
2 66733  97.4229 266.2926 0002635 283.7729  76.3212 15.20141459 34209
FLOCK 4H-31             
1 66734U 25276BW  26193.19003684  .00003525  00000+0  16721-3 0  9994
2 66734  97.4166 266.1407 0002155 298.1291  61.9726 15.19918720 34216
FLOCK 4H-32             
1 66735U 25276BX  26193.44149970  .00003629  00000+0  17146-3 0  9999
2 66735  97.4222 266.5816 0002999 277.0199  83.0694 15.20039580 34250
