{"fetched_at":"2026-07-12T17:32:25.735Z","source":"https://celestrak.org/NORAD/elements/gp.php?GROUP=planet&FORMAT=JSON","constellation":"superdove","records":[{"OBJECT_NAME":"FLOCK 4H-15","OBJECT_ID":"2025-276BE","EPOCH":"2026-07-12T06:24:22.002048","CLASSIFICATION_TYPE":"U","MEAN_MOTION":15.19859701,"ECCENTRICITY":0.0002717,"INCLINATION":97.4218,"RA_OF_ASC_NODE":266.3426,"ARG_OF_PERICENTER":291.757,"MEAN_ANOMALY":68.3375,"EPHEMERIS_TYPE":0,"NORAD_CAT_ID":66718,"ELEMENT_SET_NO":999,"REV_AT_EPOCH":3422,"BSTAR":0.00018171,"MEAN_MOTION_DOT":0.0000383,"MEAN_MOTION_DDOT":0},{"OBJECT_NAME":"FLOCK 4H-16","OBJECT_ID":"2025-276BF","EPOCH":"2026-07-12T10:30:10.704096","CLASSIFICATION_TYPE":"U","MEAN_MOTION":15.20128334,"ECCENTRICITY":0.0002703,"INCLINATION":97.4234,"RA_OF_ASC_NODE":266.6191,"ARG_OF_PERICENTER":272.6174,"MEAN_ANOMALY":87.4752,"EPHEMERIS_TYPE":0,"NORAD_CAT_ID":66719,"ELEMENT_SET_NO":999,"REV_AT_EPOCH":3425,"BSTAR":0.00017933,"MEAN_MOTION_DOT":0.00003809,"MEAN_MOTION_DDOT":0},{"OBJECT_NAME":"FLOCK 4H-18","OBJECT_ID":"2025-276BH","EPOCH":"2026-07-12T12:13:42.090816","CLASSIFICATION_TYPE":"U","MEAN_MOTION":15.2006994,"ECCENTRICITY":0.0002306,"INCLINATION":97.4176,"RA_OF_ASC_NODE":266.5057,"ARG_OF_PERICENTER":308.6228,"MEAN_ANOMALY":51.48,"EPHEMERIS_TYPE":0,"NORAD_CAT_ID":66721,"ELEMENT_SET_NO":999,"REV_AT_EPOCH":3426,"BSTAR":0.00017663,"MEAN_MOTION_DOT":0.00003744,"MEAN_MOTION_DDOT":0},{"OBJECT_NAME":"FLOCK 4H-19","OBJECT_ID":"2025-276BJ","EPOCH":"2026-07-12T12:15:40.996224","CLASSIFICATION_TYPE":"U","MEAN_MOTION":15.21266946,"ECCENTRICITY":0.0002165,"INCLINATION":97.4177,"RA_OF_ASC_NODE":266.9648,"ARG_OF_PERICENTER":154.176,"MEAN_ANOMALY":205.9584,"EPHEMERIS_TYPE":0,"NORAD_CAT_ID":66722,"ELEMENT_SET_NO":999,"REV_AT_EPOCH":3358,"BSTAR":0.00014962,"MEAN_MOTION_DOT":0.00003274,"MEAN_MOTION_DDOT":0},{"OBJECT_NAME":"FLOCK 4H-20","OBJECT_ID":"2025-276BK","EPOCH":"2026-07-12T12:19:10.643232","CLASSIFICATION_TYPE":"U","MEAN_MOTION":15.21424357,"ECCENTRICITY":0.0002523,"INCLINATION":97.4214,"RA_OF_ASC_NODE":267.0711,"ARG_OF_PERICENTER":178.7749,"MEAN_ANOMALY":181.3493,"EPHEMERIS_TYPE":0,"NORAD_CAT_ID":66723,"ELEMENT_SET_NO":999,"REV_AT_EPOCH":3354,"BSTAR":0.00016783,"MEAN_MOTION_DOT":0.00003698,"MEAN_MOTION_DDOT":0},{"OBJECT_NAME":"FLOCK 4H-21","OBJECT_ID":"2025-276BL","EPOCH":"2026-07-12T03:34:52.446432","CLASSIFICATION_TYPE":"U","MEAN_MOTION":15.21009905,"ECCENTRICITY":0.00023863,"INCLINATION":97.4177,"RA_OF_ASC_NODE":266.5397,"ARG_OF_PERICENTER":176.7511,"MEAN_ANOMALY":183.374,"EPHEMERIS_TYPE":0,"NORAD_CAT_ID":66724,"ELEMENT_SET_NO":999,"REV_AT_EPOCH":3348,"BSTAR":0.00019804549,"MEAN_MOTION_DOT":0.00004324,"MEAN_MOTION_DDOT":0},{"OBJECT_NAME":"FLOCK 4H-22","OBJECT_ID":"2025-276BM","EPOCH":"2026-07-11T17:34:12.447264","CLASSIFICATION_TYPE":"U","MEAN_MOTION":15.20492582,"ECCENTRICITY":0.00012118,"INCLINATION":97.4168,"RA_OF_ASC_NODE":265.8427,"ARG_OF_PERICENTER":324.5369,"MEAN_ANOMALY":35.5785,"EPHEMERIS_TYPE":0,"NORAD_CAT_ID":66725,"ELEMENT_SET_NO":999,"REV_AT_EPOCH":3415,"BSTAR":0.000198386,"MEAN_MOTION_DOT":0.00004266,"MEAN_MOTION_DDOT":0},{"OBJECT_NAME":"FLOCK 4H-23","OBJECT_ID":"2025-276BN","EPOCH":"2026-07-12T10:37:53.884992","CLASSIFICATION_TYPE":"U","MEAN_MOTION":15.20048324,"ECCENTRICITY":0.0002836,"INCLINATION":97.424,"RA_OF_ASC_NODE":266.6258,"ARG_OF_PERICENTER":260.1995,"MEAN_ANOMALY":99.892,"EPHEMERIS_TYPE":0,"NORAD_CAT_ID":66726,"ELEMENT_SET_NO":999,"REV_AT_EPOCH":3425,"BSTAR":0.00017399,"MEAN_MOTION_DOT":0.00003684,"MEAN_MOTION_DDOT":0},{"OBJECT_NAME":"FLOCK 4H-24","OBJECT_ID":"2025-276BP","EPOCH":"2026-07-11T18:28:23.989440","CLASSIFICATION_TYPE":"U","MEAN_MOTION":15.20151756,"ECCENTRICITY":0.00023597,"INCLINATION":97.4235,"RA_OF_ASC_NODE":265.9919,"ARG_OF_PERICENTER":287.452,"MEAN_ANOMALY":72.6457,"EPHEMERIS_TYPE":0,"NORAD_CAT_ID":66727,"ELEMENT_SET_NO":999,"REV_AT_EPOCH":3415,"BSTAR":0.00019404745,"MEAN_MOTION_DOT":0.00004129,"MEAN_MOTION_DDOT":0},{"OBJECT_NAME":"FLOCK 4H-25","OBJECT_ID":"2025-276BQ","EPOCH":"2026-07-11T18:32:47.702112","CLASSIFICATION_TYPE":"U","MEAN_MOTION":15.20917731,"ECCENTRICITY":0.00017094,"INCLINATION":97.4191,"RA_OF_ASC_NODE":266.1603,"ARG_OF_PERICENTER":129.5036,"MEAN_ANOMALY":230.6351,"EPHEMERIS_TYPE":0,"NORAD_CAT_ID":66728,"ELEMENT_SET_NO":999,"REV_AT_EPOCH":3345,"BSTAR":0.00017056891,"MEAN_MOTION_DOT":0.00003704,"MEAN_MOTION_DDOT":0},{"OBJECT_NAME":"FLOCK 4H-26","OBJECT_ID":"2025-276BR","EPOCH":"2026-07-12T03:09:40.284864","CLASSIFICATION_TYPE":"U","MEAN_MOTION":15.19878396,"ECCENTRICITY":0.00032233,"INCLINATION":97.4189,"RA_OF_ASC_NODE":266.1334,"ARG_OF_PERICENTER":281.9852,"MEAN_ANOMALY":78.1021,"EPHEMERIS_TYPE":0,"NORAD_CAT_ID":66729,"ELEMENT_SET_NO":999,"REV_AT_EPOCH":3420,"BSTAR":0.00018956934,"MEAN_MOTION_DOT":0.00004001,"MEAN_MOTION_DDOT":0},{"OBJECT_NAME":"FLOCK 4H-27","OBJECT_ID":"2025-276BS","EPOCH":"2026-07-12T06:19:34.163040","CLASSIFICATION_TYPE":"U","MEAN_MOTION":15.20746728,"ECCENTRICITY":0.0001372,"INCLINATION":97.4166,"RA_OF_ASC_NODE":266.4986,"ARG_OF_PERICENTER":126.5367,"MEAN_ANOMALY":233.5995,"EPHEMERIS_TYPE":0,"NORAD_CAT_ID":66730,"ELEMENT_SET_NO":999,"REV_AT_EPOCH":3424,"BSTAR":0.00018159,"MEAN_MOTION_DOT":0.00003928,"MEAN_MOTION_DDOT":0},{"OBJECT_NAME":"FLOCK 4H-29","OBJECT_ID":"2025-276BU","EPOCH":"2026-07-12T10:34:34.905792","CLASSIFICATION_TYPE":"U","MEAN_MOTION":15.20020897,"ECCENTRICITY":0.0001706,"INCLINATION":97.417,"RA_OF_ASC_NODE":266.4197,"ARG_OF_PERICENTER":304.7175,"MEAN_ANOMALY":55.3899,"EPHEMERIS_TYPE":0,"NORAD_CAT_ID":66732,"ELEMENT_SET_NO":999,"REV_AT_EPOCH":3425,"BSTAR":0.00018407,"MEAN_MOTION_DOT":0.00003899,"MEAN_MOTION_DDOT":0},{"OBJECT_NAME":"FLOCK 4H-30","OBJECT_ID":"2025-276BV","EPOCH":"2026-07-12T02:29:17.891520","CLASSIFICATION_TYPE":"U","MEAN_MOTION":15.20141459,"ECCENTRICITY":0.00026358,"INCLINATION":97.4229,"RA_OF_ASC_NODE":266.2926,"ARG_OF_PERICENTER":283.7729,"MEAN_ANOMALY":76.3212,"EPHEMERIS_TYPE":0,"NORAD_CAT_ID":66733,"ELEMENT_SET_NO":999,"REV_AT_EPOCH":3420,"BSTAR":0.00019185334,"MEAN_MOTION_DOT":0.00004081,"MEAN_MOTION_DDOT":0},{"OBJECT_NAME":"FLOCK 4H-31","OBJECT_ID":"2025-276BW","EPOCH":"2026-07-12T04:33:39.182976","CLASSIFICATION_TYPE":"U","MEAN_MOTION":15.1991872,"ECCENTRICITY":0.00021552,"INCLINATION":97.4166,"RA_OF_ASC_NODE":266.1407,"ARG_OF_PERICENTER":298.1291,"MEAN_ANOMALY":61.9726,"EPHEMERIS_TYPE":0,"NORAD_CAT_ID":66734,"ELEMENT_SET_NO":999,"REV_AT_EPOCH":3421,"BSTAR":0.000167205,"MEAN_MOTION_DOT":0.00003525,"MEAN_MOTION_DDOT":0},{"OBJECT_NAME":"FLOCK 4H-32","OBJECT_ID":"2025-276BX","EPOCH":"2026-07-12T10:35:45.574080","CLASSIFICATION_TYPE":"U","MEAN_MOTION":15.2003958,"ECCENTRICITY":0.0002999,"INCLINATION":97.4222,"RA_OF_ASC_NODE":266.5816,"ARG_OF_PERICENTER":277.0199,"MEAN_ANOMALY":83.0694,"EPHEMERIS_TYPE":0,"NORAD_CAT_ID":66735,"ELEMENT_SET_NO":999,"REV_AT_EPOCH":3425,"BSTAR":0.00017146,"MEAN_MOTION_DOT":0.00003629,"MEAN_MOTION_DDOT":0}]}
